GIOVE-A                 
1 28922U 05051A   09241.67329233 -.00000027  00000-0  10000-3 0  5614
2 28922  56.0699 155.4342 0009901 346.9941  12.9922  1.69489672 22819
GIOVE-B                 
1 32781U 08020A   09241.08513154  .00000004  00000-0  10000-3 0  2096
2 32781  55.9445 190.3040 0020171 220.4241 139.3931  1.70949778  8377
